{
  "type": "FeatureCollection",
  "name": "Acme Corp — US Locations",
  "description": "Sample dataset: fictional company locations across the USA with revenue and headcount, for demoing pin, cluster, heatmap, and bubble map types.",
  "features": [
    { "type": "Feature", "properties": { "name": "Acme New York HQ", "city": "New York", "state": "NY", "type": "Headquarters", "employees": 1250, "revenue_musd": 410 }, "geometry": { "type": "Point", "coordinates": [-74.006, 40.7128] } },
    { "type": "Feature", "properties": { "name": "Acme Brooklyn", "city": "Brooklyn", "state": "NY", "type": "Retail", "employees": 48, "revenue_musd": 12 }, "geometry": { "type": "Point", "coordinates": [-73.9442, 40.6782] } },
    { "type": "Feature", "properties": { "name": "Acme Newark", "city": "Newark", "state": "NJ", "type": "Distribution", "employees": 220, "revenue_musd": 35 }, "geometry": { "type": "Point", "coordinates": [-74.1724, 40.7357] } },
    { "type": "Feature", "properties": { "name": "Acme Boston", "city": "Boston", "state": "MA", "type": "Office", "employees": 310, "revenue_musd": 88 }, "geometry": { "type": "Point", "coordinates": [-71.0589, 42.3601] } },
    { "type": "Feature", "properties": { "name": "Acme Philadelphia", "city": "Philadelphia", "state": "PA", "type": "Retail", "employees": 65, "revenue_musd": 18 }, "geometry": { "type": "Point", "coordinates": [-75.1652, 39.9526] } },
    { "type": "Feature", "properties": { "name": "Acme Washington DC", "city": "Washington", "state": "DC", "type": "Office", "employees": 180, "revenue_musd": 52 }, "geometry": { "type": "Point", "coordinates": [-77.0369, 38.9072] } },
    { "type": "Feature", "properties": { "name": "Acme Atlanta", "city": "Atlanta", "state": "GA", "type": "Regional HQ", "employees": 540, "revenue_musd": 140 }, "geometry": { "type": "Point", "coordinates": [-84.388, 33.749] } },
    { "type": "Feature", "properties": { "name": "Acme Miami", "city": "Miami", "state": "FL", "type": "Retail", "employees": 72, "revenue_musd": 21 }, "geometry": { "type": "Point", "coordinates": [-80.1918, 25.7617] } },
    { "type": "Feature", "properties": { "name": "Acme Orlando", "city": "Orlando", "state": "FL", "type": "Retail", "employees": 55, "revenue_musd": 15 }, "geometry": { "type": "Point", "coordinates": [-81.3792, 28.5383] } },
    { "type": "Feature", "properties": { "name": "Acme Tampa", "city": "Tampa", "state": "FL", "type": "Distribution", "employees": 190, "revenue_musd": 28 }, "geometry": { "type": "Point", "coordinates": [-82.4572, 27.9506] } },
    { "type": "Feature", "properties": { "name": "Acme Charlotte", "city": "Charlotte", "state": "NC", "type": "Office", "employees": 140, "revenue_musd": 39 }, "geometry": { "type": "Point", "coordinates": [-80.8431, 35.2271] } },
    { "type": "Feature", "properties": { "name": "Acme Nashville", "city": "Nashville", "state": "TN", "type": "Retail", "employees": 60, "revenue_musd": 17 }, "geometry": { "type": "Point", "coordinates": [-86.7816, 36.1627] } },
    { "type": "Feature", "properties": { "name": "Acme Chicago", "city": "Chicago", "state": "IL", "type": "Regional HQ", "employees": 620, "revenue_musd": 175 }, "geometry": { "type": "Point", "coordinates": [-87.6298, 41.8781] } },
    { "type": "Feature", "properties": { "name": "Acme Detroit", "city": "Detroit", "state": "MI", "type": "Manufacturing", "employees": 480, "revenue_musd": 95 }, "geometry": { "type": "Point", "coordinates": [-83.0458, 42.3314] } },
    { "type": "Feature", "properties": { "name": "Acme Columbus", "city": "Columbus", "state": "OH", "type": "Distribution", "employees": 260, "revenue_musd": 42 }, "geometry": { "type": "Point", "coordinates": [-82.9988, 39.9612] } },
    { "type": "Feature", "properties": { "name": "Acme Indianapolis", "city": "Indianapolis", "state": "IN", "type": "Distribution", "employees": 240, "revenue_musd": 38 }, "geometry": { "type": "Point", "coordinates": [-86.1581, 39.7684] } },
    { "type": "Feature", "properties": { "name": "Acme Minneapolis", "city": "Minneapolis", "state": "MN", "type": "Office", "employees": 175, "revenue_musd": 48 }, "geometry": { "type": "Point", "coordinates": [-93.265, 44.9778] } },
    { "type": "Feature", "properties": { "name": "Acme St. Louis", "city": "St. Louis", "state": "MO", "type": "Retail", "employees": 50, "revenue_musd": 13 }, "geometry": { "type": "Point", "coordinates": [-90.1994, 38.627] } },
    { "type": "Feature", "properties": { "name": "Acme Kansas City", "city": "Kansas City", "state": "MO", "type": "Distribution", "employees": 210, "revenue_musd": 33 }, "geometry": { "type": "Point", "coordinates": [-94.5786, 39.0997] } },
    { "type": "Feature", "properties": { "name": "Acme Dallas", "city": "Dallas", "state": "TX", "type": "Regional HQ", "employees": 580, "revenue_musd": 160 }, "geometry": { "type": "Point", "coordinates": [-96.797, 32.7767] } },
    { "type": "Feature", "properties": { "name": "Acme Houston", "city": "Houston", "state": "TX", "type": "Office", "employees": 330, "revenue_musd": 92 }, "geometry": { "type": "Point", "coordinates": [-95.3698, 29.7604] } },
    { "type": "Feature", "properties": { "name": "Acme Austin", "city": "Austin", "state": "TX", "type": "R&D", "employees": 290, "revenue_musd": 70 }, "geometry": { "type": "Point", "coordinates": [-97.7431, 30.2672] } },
    { "type": "Feature", "properties": { "name": "Acme San Antonio", "city": "San Antonio", "state": "TX", "type": "Retail", "employees": 58, "revenue_musd": 16 }, "geometry": { "type": "Point", "coordinates": [-98.4936, 29.4241] } },
    { "type": "Feature", "properties": { "name": "Acme Oklahoma City", "city": "Oklahoma City", "state": "OK", "type": "Retail", "employees": 42, "revenue_musd": 10 }, "geometry": { "type": "Point", "coordinates": [-97.5164, 35.4676] } },
    { "type": "Feature", "properties": { "name": "Acme Denver", "city": "Denver", "state": "CO", "type": "Office", "employees": 205, "revenue_musd": 61 }, "geometry": { "type": "Point", "coordinates": [-104.9903, 39.7392] } },
    { "type": "Feature", "properties": { "name": "Acme Salt Lake City", "city": "Salt Lake City", "state": "UT", "type": "Distribution", "employees": 185, "revenue_musd": 27 }, "geometry": { "type": "Point", "coordinates": [-111.891, 40.7608] } },
    { "type": "Feature", "properties": { "name": "Acme Phoenix", "city": "Phoenix", "state": "AZ", "type": "Manufacturing", "employees": 410, "revenue_musd": 84 }, "geometry": { "type": "Point", "coordinates": [-112.074, 33.4484] } },
    { "type": "Feature", "properties": { "name": "Acme Las Vegas", "city": "Las Vegas", "state": "NV", "type": "Retail", "employees": 68, "revenue_musd": 22 }, "geometry": { "type": "Point", "coordinates": [-115.1398, 36.1699] } },
    { "type": "Feature", "properties": { "name": "Acme Albuquerque", "city": "Albuquerque", "state": "NM", "type": "Retail", "employees": 38, "revenue_musd": 9 }, "geometry": { "type": "Point", "coordinates": [-106.6504, 35.0844] } },
    { "type": "Feature", "properties": { "name": "Acme Los Angeles", "city": "Los Angeles", "state": "CA", "type": "Regional HQ", "employees": 710, "revenue_musd": 230 }, "geometry": { "type": "Point", "coordinates": [-118.2437, 34.0522] } },
    { "type": "Feature", "properties": { "name": "Acme San Diego", "city": "San Diego", "state": "CA", "type": "Office", "employees": 160, "revenue_musd": 44 }, "geometry": { "type": "Point", "coordinates": [-117.1611, 32.7157] } },
    { "type": "Feature", "properties": { "name": "Acme San Francisco", "city": "San Francisco", "state": "CA", "type": "R&D", "employees": 380, "revenue_musd": 120 }, "geometry": { "type": "Point", "coordinates": [-122.4194, 37.7749] } },
    { "type": "Feature", "properties": { "name": "Acme San Jose", "city": "San Jose", "state": "CA", "type": "R&D", "employees": 295, "revenue_musd": 86 }, "geometry": { "type": "Point", "coordinates": [-121.8863, 37.3382] } },
    { "type": "Feature", "properties": { "name": "Acme Sacramento", "city": "Sacramento", "state": "CA", "type": "Distribution", "employees": 175, "revenue_musd": 25 }, "geometry": { "type": "Point", "coordinates": [-121.4944, 38.5816] } },
    { "type": "Feature", "properties": { "name": "Acme Portland", "city": "Portland", "state": "OR", "type": "Office", "employees": 145, "revenue_musd": 37 }, "geometry": { "type": "Point", "coordinates": [-122.6765, 45.5231] } },
    { "type": "Feature", "properties": { "name": "Acme Seattle", "city": "Seattle", "state": "WA", "type": "Regional HQ", "employees": 450, "revenue_musd": 135 }, "geometry": { "type": "Point", "coordinates": [-122.3321, 47.6062] } },
    { "type": "Feature", "properties": { "name": "Acme Boise", "city": "Boise", "state": "ID", "type": "Retail", "employees": 30, "revenue_musd": 7 }, "geometry": { "type": "Point", "coordinates": [-116.2023, 43.615] } },
    { "type": "Feature", "properties": { "name": "Acme Anchorage", "city": "Anchorage", "state": "AK", "type": "Retail", "employees": 22, "revenue_musd": 5 }, "geometry": { "type": "Point", "coordinates": [-149.9003, 61.2181] } },
    { "type": "Feature", "properties": { "name": "Acme Honolulu", "city": "Honolulu", "state": "HI", "type": "Retail", "employees": 26, "revenue_musd": 8 }, "geometry": { "type": "Point", "coordinates": [-157.8583, 21.3069] } },
    { "type": "Feature", "properties": { "name": "Acme New Orleans", "city": "New Orleans", "state": "LA", "type": "Retail", "employees": 44, "revenue_musd": 11 }, "geometry": { "type": "Point", "coordinates": [-90.0715, 29.9511] } }
  ]
}
